[Satellite]
VERSION=1.1
NAME=IRIDIUM 157
NICKNAME=IRIDIUM 157
TLE1=1 43251U 18030C   19317.33507789  .00000097  00000-0  27665-4 0  9996
TLE2=2 43251  86.4022 216.6351 0002519  79.1944 280.9535 14.34220109 85016
STATUS=0
